[{"OBJECT_NAME":"STARLINK-5469","OBJECT_ID":"2023-021X","EPOCH":"2026-03-09T18:09:20.580480","MEAN_MOTION":14.98331595,"ECCENTRICITY":0.0003345,"INCLINATION":70.0017,"RA_OF_ASC_NODE":184.1969,"ARG_OF_PERICENTER":270.4714,"MEAN_ANOMALY":89.6062,"EPHEMERIS_TYPE":0,"CLASSIFICATION_TYPE":"U","NORAD_CAT_ID":55649,"ELEMENT_SET_NO":999,"REV_AT_EPOCH":16880,"BSTAR":1.2115723e-5,"MEAN_MOTION_DOT":5.2e-7,"MEAN_MOTION_DDOT":0},{"OBJECT_NAME":"SITRO-AIS 18","OBJECT_ID":"2024-199BH","EPOCH":"2026-03-09T22:56:51.354816","MEAN_MOTION":14.97350577,"ECCENTRICITY":0.00069154,"INCLINATION":97.331,"RA_OF_ASC_NODE":274.6581,"ARG_OF_PERICENTER":53.7115,"MEAN_ANOMALY":306.4746,"EPHEMERIS_TYPE":0,"CLASSIFICATION_TYPE":"U","NORAD_CAT_ID":61790,"ELEMENT_SET_NO":999,"REV_AT_EPOCH":11718,"BSTAR":0.00032194999,"MEAN_MOTION_DOT":3.687e-5,"MEAN_MOTION_DDOT":0}]
